{"type": "FeatureCollection", "features": [ {"type": "Feature", "properties": {"norad_id": 34547, "name": "COSMOS 2251 DEB", "group": "cosmos-2251-debris", "lat": -66.35258102368985, "lon": 50.855797612422585, "alt_km": 665.4056329050218, "timestamp": "2025-12-17T09:00:17.542369+00:00", "meta": {"OBJECT_NAME": "COSMOS 2251 DEB", "OBJECT_ID": "1993-036UH", "EPOCH": "2025-12-16T13:45:58.590720", "MEAN_MOTION": 14.72433981, "ECCENTRICITY": 0.00168642, "INCLINATION": 74.03, "RA_OF_ASC_NODE": 93.2597, "ARG_OF_PERICENTER": 173.0693, "MEAN_ANOMALY": 187.0716, "EPHEMERIS_TYPE": 0, "CLASSIFICATION_TYPE": "U", "NORAD_CAT_ID": 34547, "ELEMENT_SET_NO": 999, "REV_AT_EPOCH": 88578, "BSTAR": 0.0013869444, "MEAN_MOTION_DOT": 8.793e-05, "MEAN_MOTION_DDOT": 0}, "tle": {"line1": "1 34547U 93036UH  25350.57359480  .00008793  00000+0  13869-2 0  9995", "line2": "2 34547  74.0300  93.2597 0016864 173.0693 187.0716 14.72433981885786"}}, "geometry": {"type": "Point", "coordinates": [50.855797612422585, -66.35258102368985]}}, {"type": "Feature", "properties": {"norad_id": 34553, "name": "COSMOS 2251 DEB", "group": "cosmos-2251-debris", "lat": -56.6160056430115, "lon": 157.30432531162336, "alt_km": 696.67108786268, "timestamp": "2025-12-17T09:00:17.542379+00:00", "meta": {"OBJECT_NAME": "COSMOS 2251 DEB", "OBJECT_ID": "1993-036UP", "EPOCH": "2025-12-16T23:59:06.749088", "MEAN_MOTION": 14.57763077, "ECCENTRICITY": 0.0019169, "INCLINATION": 74.0242, "RA_OF_ASC_NODE": 183.7872, "ARG_OF_PERICENTER": 260.8358, "MEAN_ANOMALY": 227.318, "EPHEMERIS_TYPE": 0, "CLASSIFICATION_TYPE": "U", "NORAD_CAT_ID": 34553, "ELEMENT_SET_NO": 999, "REV_AT_EPOCH": 88158, "BSTAR": 0.00083008004, "MEAN_MOTION_DOT": 3.776e-05, "MEAN_MOTION_DDOT": 0}, "tle": {"line1": "1 34553U 93036UP  25350.99938367  .00003776  00000+0  83008-3 0  9994", "line2": "2 34553  74.0242 183.7872 0019169 260.8358 227.3180 14.57763077881585"}}, "geometry": {"type": "Point", "coordinates": [157.30432531162336, -56.6160056430115]}}, {"type": "Feature", "properties": {"norad_id": 34554, "name": "COSMOS 2251 DEB", "group": "cosmos-2251-debris", "lat": 68.63907154348084, "lon": -22.511935083850048, "alt_km": 756.4287151728086, "timestamp": "2025-12-17T09:00:17.542389+00:00", "meta": {"OBJECT_NAME": "COSMOS 2251 DEB", "OBJECT_ID": "1993-036UQ", "EPOCH": "2025-12-16T21:16:03.021312", "MEAN_MOTION": 14.37947436, "ECCENTRICITY": 0.00231805, "INCLINATION": 74.0394, "RA_OF_ASC_NODE": 291.3565, "ARG_OF_PERICENTER": 352.8955, "MEAN_ANOMALY": 71.8534, "EPHEMERIS_TYPE": 0, "CLASSIFICATION_TYPE": "U", "NORAD_CAT_ID": 34554, "ELEMENT_SET_NO": 999, "REV_AT_EPOCH": 87815, "BSTAR": 0.0003042812, "MEAN_MOTION_DOT": 8.96e-06, "MEAN_MOTION_DDOT": 0}, "tle": {"line1": "1 34554U 93036UQ  25350.88614608  .00000896  00000+0  30428-3 0  9990", "line2": "2 34554  74.0394 291.3565 0023180 352.8955  71.8534 14.37947436878157"}}, "geometry": {"type": "Point", "coordinates": [-22.511935083850048, 68.63907154348084]}}, {"type": "Feature", "properties": {"norad_id": 34556, "name": "COSMOS 2251 DEB", "group": "cosmos-2251-debris", "lat": 0.04324482327235191, "lon": -64.26790556140108, "alt_km": 633.3890205093376, "timestamp": "2025-12-17T09:00:17.542400+00:00", "meta": {"OBJECT_NAME": "COSMOS 2251 DEB", "OBJECT_ID": "1993-036US", "EPOCH": "2025-12-16T19:45:43.582176", "MEAN_MOTION": 14.77934389, "ECCENTRICITY": 0.00072568, "INCLINATION": 74.0153, "RA_OF_ASC_NODE": 116.8287, "ARG_OF_PERICENTER": 176.8473, "MEAN_ANOMALY": 308.405, "EPHEMERIS_TYPE": 0, "CLASSIFICATION_TYPE": "U", "NORAD_CAT_ID": 34556, "ELEMENT_SET_NO": 999, "REV_AT_EPOCH": 88389, "BSTAR": 0.0016502155, "MEAN_MOTION_DOT": 0.00011883, "MEAN_MOTION_DDOT": 0}, "tle": {"line1": "1 34556U 93036US  25350.82342109  .00011883  00000+0  16502-2 0  9994", "line2": "2 34556  74.0153 116.8287 0007256 176.8473 308.4050 14.77934389883895"}}, "geometry": {"type": "Point", "coordinates": [-64.26790556140108, 0.04324482327235191]}}, {"type": "Feature", "properties": {"norad_id": 34560, "name": "COSMOS 2251 DEB", "group": "cosmos-2251-debris", "lat": -20.525415159657534, "lon": 126.94208648301264, "alt_km": 664.4045579165359, "timestamp": "2025-12-17T09:00:17.542410+00:00", "meta": {"OBJECT_NAME": "COSMOS 2251 DEB", "OBJECT_ID": "1993-036UW", "EPOCH": "2025-12-16T20:36:13.867776", "MEAN_MOTION": 14.72247709, "ECCENTRICITY": 0.00143485, "INCLINATION": 74.0156, "RA_OF_ASC_NODE": 134.1089, "ARG_OF_PERICENTER": 215.7701, "MEAN_ANOMALY": 265.3357, "EPHEMERIS_TYPE": 0, "CLASSIFICATION_TYPE": "U", "NORAD_CAT_ID": 34560, "ELEMENT_SET_NO": 999, "REV_AT_EPOCH": 88312, "BSTAR": 0.0016577114, "MEAN_MOTION_DOT": 0.00010467, "MEAN_MOTION_DDOT": 0}, "tle": {"line1": "1 34560U 93036UW  25350.85849384  .00010467  00000+0  16577-2 0  9998", "line2": "2 34560  74.0156 134.1089 0014348 215.7701 265.3357 14.72247709883128"}}, "geometry": {"type": "Point", "coordinates": [126.94208648301264, -20.525415159657534]}}, {"type": "Feature", "properties": {"norad_id": 34563, "name": "COSMOS 2251 DEB", "group": "cosmos-2251-debris", "lat": 33.84404571817126, "lon": -153.88054442550177, "alt_km": 737.3547248622217, "timestamp": "2025-12-17T09:00:17.542420+00:00", "meta": {"OBJECT_NAME": "COSMOS 2251 DEB", "OBJECT_ID": "1993-036UZ", "EPOCH": "2025-12-16T23:27:31.913280", "MEAN_MOTION": 14.46523914, "ECCENTRICITY": 0.00138836, "INCLINATION": 74.0376, "RA_OF_ASC_NODE": 195.7965, "ARG_OF_PERICENTER": 289.5842, "MEAN_ANOMALY": 195.3147, "EPHEMERIS_TYPE": 0, "CLASSIFICATION_TYPE": "U", "NORAD_CAT_ID": 34563, "ELEMENT_SET_NO": 999, "REV_AT_EPOCH": 88258, "BSTAR": 0.00034684826, "MEAN_MOTION_DOT": 1.224e-05, "MEAN_MOTION_DDOT": 0}, "tle": {"line1": "1 34563U 93036UZ  25350.97745270  .00001224  00000+0  34685-3 0  9995", "line2": "2 34563  74.0376 195.7965 0013883 289.5842 195.3147 14.46523914882583"}}, "geometry": {"type": "Point", "coordinates": [-153.88054442550177, 33.84404571817126]}}, {"type": "Feature", "properties": {"norad_id": 34564, "name": "COSMOS 2251 DEB", "group": "cosmos-2251-debris", "lat": 69.69842804128965, "lon": -79.85109949644648, "alt_km": 752.524214077599, "timestamp": "2025-12-17T09:00:17.542430+00:00", "meta": {"OBJECT_NAME": "COSMOS 2251 DEB", "OBJECT_ID": "1993-036VA", "EPOCH": "2025-12-16T17:57:26.558784", "MEAN_MOTION": 14.40697599, "ECCENTRICITY": 0.00191701, "INCLINATION": 74.0319, "RA_OF_ASC_NODE": 230.5957, "ARG_OF_PERICENTER": 333.9583, "MEAN_ANOMALY": 92.6391, "EPHEMERIS_TYPE": 0, "CLASSIFICATION_TYPE": "U", "NORAD_CAT_ID": 34564, "ELEMENT_SET_NO": 999, "REV_AT_EPOCH": 88064, "BSTAR": 0.00023247331, "MEAN_MOTION_DOT": 7.18e-06, "MEAN_MOTION_DDOT": 0}, "tle": {"line1": "1 34564U 93036VA  25350.74822406  .00000718  00000+0  23247-3 0  9997", "line2": "2 34564  74.0319 230.5957 0019170 333.9583  92.6391 14.40697599880641"}}, "geometry": {"type": "Point", "coordinates": [-79.85109949644648, 69.69842804128965]}}, {"type": "Feature", "properties": {"norad_id": 34567, "name": "COSMOS 2251 DEB", "group": "cosmos-2251-debris", "lat": -23.94421570251554, "lon": -24.261752238700176, "alt_km": 765.7100196557003, "timestamp": "2025-12-17T09:00:17.542440+00:00", "meta": {"OBJECT_NAME": "COSMOS 2251 DEB", "OBJECT_ID": "1993-036VD", "EPOCH": "2025-12-16T19:05:42.076896", "MEAN_MOTION": 14.24021188, "ECCENTRICITY": 0.00743349, "INCLINATION": 74.0403, "RA_OF_ASC_NODE": 149.4804, "ARG_OF_PERICENTER": 222.85, "MEAN_ANOMALY": 252.249, "EPHEMERIS_TYPE": 0, "CLASSIFICATION_TYPE": "U", "NORAD_CAT_ID": 34567, "ELEMENT_SET_NO": 999, "REV_AT_EPOCH": 87182, "BSTAR": 0.00022407318, "MEAN_MOTION_DOT": 5.04e-06, "MEAN_MOTION_DDOT": 0}, "tle": {"line1": "1 34567U 93036VD  25350.79562589  .00000504  00000+0  22407-3 0  9998", "line2": "2 34567  74.0403 149.4804 0074334 222.8500 252.2490 14.24021188871826"}}, "geometry": {"type": "Point", "coordinates": [-24.261752238700176, -23.94421570251554]}}, {"type": "Feature", "properties": {"norad_id": 34569, "name": "COSMOS 2251 DEB", "group": "cosmos-2251-debris", "lat": 22.85519132338851, "lon": -163.29408841034012, "alt_km": 696.0897514913449, "timestamp": "2025-12-17T09:00:17.542451+00:00", "meta": {"OBJECT_NAME": "COSMOS 2251 DEB", "OBJECT_ID": "1993-036VF", "EPOCH": "2025-12-16T14:36:52.803936", "MEAN_MOTION": 14.24762633, "ECCENTRICITY": 0.0157481, "INCLINATION": 73.9893, "RA_OF_ASC_NODE": 191.1399, "ARG_OF_PERICENTER": 18.6492, "MEAN_ANOMALY": 36.3795, "EPHEMERIS_TYPE": 0, "CLASSIFICATION_TYPE": "U", "NORAD_CAT_ID": 34569, "ELEMENT_SET_NO": 999, "REV_AT_EPOCH": 87023, "BSTAR": 0.00044065461, "MEAN_MOTION_DOT": 1.142e-05, "MEAN_MOTION_DDOT": 0}, "tle": {"line1": "1 34569U 93036VF  25350.60894449  .00001142  00000+0  44065-3 0  9996", "line2": "2 34569  73.9893 191.1399 0157481  18.6492  36.3795 14.24762633870238"}}, "geometry": {"type": "Point", "coordinates": [-163.29408841034012, 22.85519132338851]}}, {"type": "Feature", "properties": {"norad_id": 34570, "name": "COSMOS 2251 DEB", "group": "cosmos-2251-debris", "lat": -70.66921056887122, "lon": 85.33108782004992, "alt_km": 1036.248207982635, "timestamp": "2025-12-17T09:00:17.542461+00:00", "meta": {"OBJECT_NAME": "COSMOS 2251 DEB", "OBJECT_ID": "1993-036VG", "EPOCH": "2025-12-16T16:39:23.543136", "MEAN_MOTION": 13.99826345, "ECCENTRICITY": 0.01902668, "INCLINATION": 73.9568, "RA_OF_ASC_NODE": 211.4059, "ARG_OF_PERICENTER": 93.0115, "MEAN_ANOMALY": 334.1693, "EPHEMERIS_TYPE": 0, "CLASSIFICATION_TYPE": "U", "NORAD_CAT_ID": 34570, "ELEMENT_SET_NO": 999, "REV_AT_EPOCH": 85656, "BSTAR": 0.00044390279, "MEAN_MOTION_DOT": 7.38e-06, "MEAN_MOTION_DDOT": 0}, "tle": {"line1": "1 34570U 93036VG  25350.69402249  .00000738  00000+0  44390-3 0  9991", "line2": "2 34570  73.9568 211.4059 0190266  93.0115 334.1693 13.99826345856563"}}, "geometry": {"type": "Point", "coordinates": [85.33108782004992, -70.66921056887122]}}]}